start=new Date('2022-08-27T00:00:00.000Z').valueOf();
sats=[{"MEAN_MOTION":"15.06448122","REF_FRAME":"TEME","CLASSIFICATION_TYPE":"U","EPOCH":"2022-08-26T22:33:06.789024","CENTER_NAME":"EARTH","APOAPSIS":"548.360","ECCENTRICITY":"0.00018680","OBJECT_TYPE":"PAYLOAD","FILE":"3548620","DECAY_DATE":null,"SITE":"AFETR","MEAN_ANOMALY":"282.0439","MEAN_ELEMENT_THEORY":"SGP4","TIME_SYSTEM":"UTC","PERIOD":"95.589","ELEMENT_SET_NO":"999","OBJECT_NAME":"STARLINK-1331","INCLINATION":"53.0555","MEAN_MOTION_DOT":"-0.00009857","SEMIMAJOR_AXIS":"6925.201","NORAD_CAT_ID":"45578","MEAN_MOTION_DDOT":"0.0000000000000","EPHEMERIS_TYPE":"0","RA_OF_ASC_NODE":"111.0111","GP_ID":"211074901","TLE_LINE2":"2 45578  53.0555 111.0111 0001868  78.0759 282.0439 15.06448122130970","RCS_SIZE":"LARGE","PERIAPSIS":"545.772","OBJECT_ID":"2020-025AZ","REV_AT_EPOCH":"13097","BSTAR":"-0.00064290000000","LAUNCH_DATE":"2020-04-22","ARG_OF_PERICENTER":"78.0759","COUNTRY_CODE":"US","TLE_LINE1":"1 45578U 20025AZ  22238.93966191 -.00009857  00000-0 -64290-3 0  9994"},{"PERIOD":"95.592","ELEMENT_SET_NO":"999","TIME_SYSTEM":"UTC","MEAN_ELEMENT_THEORY":"SGP4","SITE":"AFETR","FILE":"3548620","DECAY_DATE":null,"MEAN_ANOMALY":"253.8697","OBJECT_TYPE":"PAYLOAD","ECCENTRICITY":"0.00015350","CENTER_NAME":"EARTH","APOAPSIS":"548.274","CLASSIFICATION_TYPE":"U","EPOCH":"2022-08-26T16:21:38.787552","MEAN_MOTION":"15.06400820","REF_FRAME":"TEME","ARG_OF_PERICENTER":"106.2461","TLE_LINE1":"1 45579U 20025BA  22238.68169893  .00001987  00000-0  15225-3 0  9999","COUNTRY_CODE":"US","BSTAR":"0.00015225000000","LAUNCH_DATE":"2020-04-22","RCS_SIZE":"LARGE","PERIAPSIS":"546.148","OBJECT_ID":"2020-025BA","REV_AT_EPOCH":"13148","TLE_LINE2":"2 45579  53.0548  72.3317 0001535 106.2461 253.8697 15.06400820131487","MEAN_MOTION_DDOT":"0.0000000000000","EPHEMERIS_TYPE":"0","RA_OF_ASC_NODE":"72.3317","GP_ID":"211075151","NORAD_CAT_ID":"45579","OBJECT_NAME":"STARLINK-1332","INCLINATION":"53.0548","MEAN_MOTION_DOT":"0.00001987","SEMIMAJOR_AXIS":"6925.346"},{"MEAN_ELEMENT_THEORY":"SGP4","FILE":"3548418","DECAY_DATE":null,"SITE":"AFETR","MEAN_ANOMALY":"272.3169","ELEMENT_SET_NO":"999","PERIOD":"95.593","TIME_SYSTEM":"UTC","EPOCH":"2022-08-26T09:58:08.145120","CLASSIFICATION_TYPE":"U","MEAN_MOTION":"15.06393710","REF_FRAME":"TEME","ECCENTRICITY":"0.00013460","OBJECT_TYPE":"PAYLOAD","APOAPSIS":"548.165","CENTER_NAME":"EARTH","PERIAPSIS":"546.301","OBJECT_ID":"2020-025BB","REV_AT_EPOCH":"13074","RCS_SIZE":"LARGE","TLE_LINE1":"1 45580U 20025BB  22238.41537205 -.00000002  00000-0  18737-4 0  9998","COUNTRY_CODE":"US","ARG_OF_PERICENTER":"87.7974","BSTAR":"0.00001873700000","LAUNCH_DATE":"2020-04-22","NORAD_CAT_ID":"45580","MEAN_MOTION_DOT":"-0.00000002","SEMIMAJOR_AXIS":"6925.368","OBJECT_NAME":"STARLINK-1333","INCLINATION":"53.0545","TLE_LINE2":"2 45580  53.0545 123.3644 0001346  87.7974 272.3169 15.06393710130745","GP_ID":"211045624","MEAN_MOTION_DDOT":"0.0000000000000","EPHEMERIS_TYPE":"0","RA_OF_ASC_NODE":"123.3644"},{"TLE_LINE2":"2 45581  53.0545 110.9670 0001564  78.7969 281.3196 15.06400840130960","GP_ID":"211076145","MEAN_MOTION_DDOT":"0.0000000000000","EPHEMERIS_TYPE":"0","RA_OF_ASC_NODE":"110.9670","NORAD_CAT_ID":"45581","MEAN_MOTION_DOT":"0.00002004","SEMIMAJOR_AXIS":"6925.346","OBJECT_NAME":"STARLINK-1335","INCLINATION":"53.0545","COUNTRY_CODE":"US","TLE_LINE1":"1 45581U 20025BC  22238.95074387  .00002004  00000-0  15336-3 0  9999","ARG_OF_PERICENTER":"78.7969","BSTAR":"0.00015336000000","LAUNCH_DATE":"2020-04-22","PERIAPSIS":"546.128","OBJECT_ID":"2020-025BC","REV_AT_EPOCH":"13096","RCS_SIZE":"LARGE","ECCENTRICITY":"0.00015640","OBJECT_TYPE":"PAYLOAD","APOAPSIS":"548.294","CENTER_NAME":"EARTH","EPOCH":"2022-08-26T22:49:04.270368","CLASSIFICATION_TYPE":"U","MEAN_MOTION":"15.06400840","REF_FRAME":"TEME","ELEMENT_SET_NO":"999","PERIOD":"95.592","TIME_SYSTEM":"UTC","MEAN_ELEMENT_THEORY":"SGP4","SITE":"AFETR","FILE":"3548620","DECAY_DATE":null,"MEAN_ANOMALY":"281.3196"},{"ELEMENT_SET_NO":"999","PERIOD":"95.592","TIME_SYSTEM":"UTC","MEAN_ELEMENT_THEORY":"SGP4","SITE":"AFETR","FILE":"3548620","DECAY_DATE":null,"MEAN_ANOMALY":"281.8965","OBJECT_TYPE":"PAYLOAD","ECCENTRICITY":"0.00016050","APOAPSIS":"548.333","CENTER_NAME":"EARTH","EPOCH":"2022-08-26T21:45:23.172480","CLASSIFICATION_TYPE":"U","MEAN_MOTION":"15.06397387","REF_FRAME":"TEME","TLE_LINE1":"1 45582U 20025BD  22238.90651820  .00000498  00000-0  52315-4 0  9992","COUNTRY_CODE":"US","ARG_OF_PERICENTER":"78.2204","BSTAR":"0.00005231500000","LAUNCH_DATE":"2020-04-22","PERIAPSIS":"546.110","REV_AT_EPOCH":"13095","OBJECT_ID":"2020-025BD","RCS_SIZE":"LARGE","TLE_LINE2":"2 45582  53.0557 111.1798 0001605  78.2204 281.8965 15.06397387130950","GP_ID":"211074402","MEAN_MOTION_DDOT":"0.0000000000000","EPHEMERIS_TYPE":"0","RA_OF_ASC_NODE":"111.1798","NORAD_CAT_ID":"45582","MEAN_MOTION_DOT":"0.00000498","SEMIMAJOR_AXIS":"6925.357","INCLINATION":"53.0557","OBJECT_NAME":"STARLINK-1337"},{"NORAD_CAT_ID":"45583","MEAN_MOTION_DOT":"0.00000221","SEMIMAJOR_AXIS":"6925.355","OBJECT_NAME":"STARLINK-1340","INCLINATION":"53.0561","TLE_LINE2":"2 45583  53.0561 111.5504 0001524  81.0631 279.0530 15.06398057130942","GP_ID":"211074651","MEAN_MOTION_DDOT":"0.0000000000000","RA_OF_ASC_NODE":"111.5504","EPHEMERIS_TYPE":"0","PERIAPSIS":"546.164","OBJECT_ID":"2020-025BE","REV_AT_EPOCH":"13094","RCS_SIZE":"LARGE","COUNTRY_CODE":"US","TLE_LINE1":"1 45583U 20025BE  22238.82174337  .00000221  00000-0  33757-4 0  9990","ARG_OF_PERICENTER":"81.0631","BSTAR":"0.00003375700000","LAUNCH_DATE":"2020-04-22","EPOCH":"2022-08-26T19:43:18.627168","CLASSIFICATION_TYPE":"U","MEAN_MOTION":"15.06398057","REF_FRAME":"TEME","ECCENTRICITY":"0.00015240","OBJECT_TYPE":"PAYLOAD","APOAPSIS":"548.275","CENTER_NAME":"EARTH","MEAN_ELEMENT_THEORY":"SGP4","FILE":"3548620","SITE":"AFETR","DECAY_DATE":null,"MEAN_ANOMALY":"279.0530","ELEMENT_SET_NO":"999","PERIOD":"95.592","TIME_SYSTEM":"UTC"},{"MEAN_MOTION":"15.06403908","REF_FRAME":"TEME","EPOCH":"2022-08-26T22:37:05.467296","CLASSIFICATION_TYPE":"U","APOAPSIS":"548.146","CENTER_NAME":"EARTH","OBJECT_TYPE":"PAYLOAD","ECCENTRICITY":"0.00013640","FILE":"3548620","DECAY_DATE":null,"SITE":"AFETR","MEAN_ANOMALY":"281.0614","MEAN_ELEMENT_THEORY":"SGP4","TIME_SYSTEM":"UTC","ELEMENT_SET_NO":"999","PERIOD":"95.592","MEAN_MOTION_DOT":"0.00000123","SEMIMAJOR_AXIS":"6925.337","OBJECT_NAME":"STARLINK-1343","INCLINATION":"53.0547","NORAD_CAT_ID":"45584","GP_ID":"211075902","MEAN_MOTION_DDOT":"0.0000000000000","RA_OF_ASC_NODE":"111.0067","EPHEMERIS_TYPE":"0","TLE_LINE2":"2 45584  53.0547 111.0067 0001364  79.0529 281.0614 15.06403908130961","PERIAPSIS":"546.257","REV_AT_EPOCH":"13096","OBJECT_ID":"2020-025BF","RCS_SIZE":"LARGE","BSTAR":"0.00002711600000","LAUNCH_DATE":"2020-04-22","TLE_LINE1":"1 45584U 20025BF  22238.94242439  .00000123  00000-0  27116-4 0  9996","COUNTRY_CODE":"US","ARG_OF_PERICENTER":"79.0529"},{"MEAN_MOTION":"15.06398180","REF_FRAME":"TEME","EPOCH":"2022-08-26T21:34:46.691328","CLASSIFICATION_TYPE":"U","APOAPSIS":"548.259","CENTER_NAME":"EARTH","ECCENTRICITY":"0.00015020","OBJECT_TYPE":"PAYLOAD","FILE":"3548620","SITE":"AFETR","DECAY_DATE":null,"MEAN_ANOMALY":"276.4550","MEAN_ELEMENT_THEORY":"SGP4","TIME_SYSTEM":"UTC","ELEMENT_SET_NO":"999","PERIOD":"95.592","MEAN_MOTION_DOT":"0.00000406","SEMIMAJOR_AXIS":"6925.354","INCLINATION":"53.0539","OBJECT_NAME":"STARLINK-1347","NORAD_CAT_ID":"45586","GP_ID":"211075645","MEAN_MOTION_DDOT":"0.0000000000000","EPHEMERIS_TYPE":"0","RA_OF_ASC_NODE":"111.2146","TLE_LINE2":"2 45586  53.0539 111.2146 0001502  83.6610 276.4550 15.06398180130940","OBJECT_ID":"2020-025BH","PERIAPSIS":"546.179","REV_AT_EPOCH":"13094","RCS_SIZE":"LARGE","BSTAR":"0.00004613400000","LAUNCH_DATE":"2020-04-22","COUNTRY_CODE":"US","TLE_LINE1":"1 45586U 20025BH  22238.89915152  .00000406  00000-0  46134-4 0  9996","ARG_OF_PERICENTER":"83.6610"},{"PERIOD":"95.592","ELEMENT_SET_NO":"999","TIME_SYSTEM":"UTC","MEAN_ELEMENT_THEORY":"SGP4","MEAN_ANOMALY":"279.4162","FILE":"3548418","DECAY_DATE":null,"SITE":"AFETR","OBJECT_TYPE":"PAYLOAD","ECCENTRICITY":"0.00015010","CENTER_NAME":"EARTH","APOAPSIS":"548.223","CLASSIFICATION_TYPE":"U","EPOCH":"2022-08-26T01:45:50.056128","REF_FRAME":"TEME","MEAN_MOTION":"15.06409959","ARG_OF_PERICENTER":"80.6997","TLE_LINE1":"1 45587U 20025BJ  22238.07349602  .00001801  00000-0  13975-3 0  9994","COUNTRY_CODE":"US","LAUNCH_DATE":"2020-04-22","BSTAR":"0.00013975000000","RCS_SIZE":"LARGE","REV_AT_EPOCH":"13083","PERIAPSIS":"546.144","OBJECT_ID":"2020-025BJ","TLE_LINE2":"2 45587  53.0552 114.9156 0001501  80.6997 279.4162 15.06409959130838","RA_OF_ASC_NODE":"114.9156","EPHEMERIS_TYPE":"0","MEAN_MOTION_DDOT":"0.0000000000000","GP_ID":"211045120","NORAD_CAT_ID":"45587","INCLINATION":"53.0552","OBJECT_NAME":"STARLINK-1349","SEMIMAJOR_AXIS":"6925.318","MEAN_MOTION_DOT":"0.00001801"},{"PERIOD":"95.592","ELEMENT_SET_NO":"999","TIME_SYSTEM":"UTC","MEAN_ELEMENT_THEORY":"SGP4","MEAN_ANOMALY":"267.7700","DECAY_DATE":null,"FILE":"3548620","SITE":"AFETR","ECCENTRICITY":"0.00014310","OBJECT_TYPE":"PAYLOAD","CENTER_NAME":"EARTH","APOAPSIS":"548.189","CLASSIFICATION_TYPE":"U","EPOCH":"2022-08-26T21:55:59.805696","MEAN_MOTION":"15.06404974","REF_FRAME":"TEME","ARG_OF_PERICENTER":"92.3453","COUNTRY_CODE":"US","TLE_LINE1":"1 45588U 20025BK  22238.91388664  .00001115  00000-0  93721-4 0  9995","LAUNCH_DATE":"2020-04-22","BSTAR":"0.00009372100000","RCS_SIZE":"LARGE","PERIAPSIS":"546.207","REV_AT_EPOCH":"13095","OBJECT_ID":"2020-025BK","TLE_LINE2":"2 45588  53.0537 111.1426 0001431  92.3453 267.7700 15.06404974130953","EPHEMERIS_TYPE":"0","RA_OF_ASC_NODE":"111.1426","MEAN_MOTION_DDOT":"0.0000000000000","GP_ID":"211075152","NORAD_CAT_ID":"45588","OBJECT_NAME":"STARLINK-1360","INCLINATION":"53.0537","SEMIMAJOR_AXIS":"6925.333","MEAN_MOTION_DOT":"0.00001115"}];
